[{"OBJECT_NAME":"JY1SAT (JO-97)","OBJECT_ID":"2018-099AX","EPOCH":"2026-03-09T16:28:19.890048","MEAN_MOTION":15.30302629,"ECCENTRICITY":0.00047232,"INCLINATION":97.4249,"RA_OF_ASC_NODE":131.3625,"ARG_OF_PERICENTER":256.6795,"MEAN_ANOMALY":103.3919,"EPHEMERIS_TYPE":0,"CLASSIFICATION_TYPE":"U","NORAD_CAT_ID":43803,"ELEMENT_SET_NO":999,"REV_AT_EPOCH":39839,"BSTAR":0.00060804308,"MEAN_MOTION_DOT":0.00017774,"MEAN_MOTION_DDOT":0},{"OBJECT_NAME":"STARLINK-34158","OBJECT_ID":"2025-101C","EPOCH":"2026-03-09T03:27:58.027968","MEAN_MOTION":15.27603972,"ECCENTRICITY":0.00013604,"INCLINATION":43.0035,"RA_OF_ASC_NODE":0.9277,"ARG_OF_PERICENTER":284.6533,"MEAN_ANOMALY":75.4168,"EPHEMERIS_TYPE":0,"CLASSIFICATION_TYPE":"U","NORAD_CAT_ID":63996,"ELEMENT_SET_NO":999,"REV_AT_EPOCH":4697,"BSTAR":0.0011659989,"MEAN_MOTION_DOT":0.00031986,"MEAN_MOTION_DDOT":0}]
